ICEYE-X40               
1 60549U 24149CK  26185.67020416  .00002469  00000+0  21393-3 0  9993
2 60549  97.6794 261.8857 0004943  29.4938 330.6563 14.98012544102692
ICEYE-X49               
1 62384U 24247H   26185.59649103  .00006606  00000+0  37611-3 0  9999
2 62384  44.9960 264.4199 0000856 236.0644 124.0152 15.13555072 84816
ICEYE-X47               
1 62389U 24247N   26186.23167212  .00007178  00000+0  40859-3 0  9995
2 62389  44.9943 260.6146 0002271 310.8518  49.2162 15.13456845 84914
ICEYE-X42               
1 62698U 25009CT  26184.77385689  .00003683  00000+0  37026-3 0  9991
2 62698  97.7374 262.7931 0001176  85.1901 274.9452 14.91843020 79763
ICEYE-X41               
1 62700U 25009CV  26186.18665974  .00005203  00000+0  45844-3 0  9997
2 62700  97.7072 265.4520 0001230  34.3255 325.8046 14.96881000 80105
ICEYE-X45               
1 62705U 25009DA  26186.19727409  .00007144  00000+0  56624-3 0  9999
2 62705  97.8377 273.0297 0001215  80.8890 279.2471 15.00864455 80384
ICEYE-X44               
1 62707U 25009DC  26186.14392837  .00004839  00000+0  43504-3 0  9990
2 62707  97.7046 264.9867 0002366  86.1667 273.9825 14.96125706102628
ICEYE-X48               
1 63253U 25052AV  26186.15813801  .00004669  00000+0  39936-3 0  9990
2 63253  97.6840  78.0706 0002755 127.2792 232.8682 14.98090379 71360
ICEYE-X50               
1 63255U 25052AX  26186.29245069  .00002132  00000+0  19841-3 0  9998
2 63255  97.6862  77.8387 0002868 122.9548 237.1949 14.95339259 71357
ICEYE-X51               
1 63257U 25052AZ  26185.65845919  .00004902  00000+0  38988-3 0  9999
2 63257  97.7586  80.7200 0001947  69.4680 290.6752 15.00880510 71421
ICEYE-X46               
1 63258U 25052BA  26186.15534593  .00002012  00000+0  18756-3 0  9990
2 63258  97.6868  77.7030 0001552  81.1670 278.9727 14.95339218 71331
ICEYE-X54               
1 64570U 25135AU  26186.30151801  .00003689  00000+0  34525-3 0  9997
2 64570  97.7736 300.5500 0001343 229.0427 131.0677 14.94693562 56604
ICEYE-X52               
1 64572U 25135AW  26186.29227524  .00001889  00000+0  18428-3 0  9997
2 64572  97.7763 300.3435 0000512 259.3571 100.7591 14.93628947 56583
ICEYE-X56               
1 64574U 25135AY  26186.29574813  .00003659  00000+0  33373-3 0  9998
2 64574  97.7763 301.1140 0000672 267.3946  92.7198 14.95723254 56637
ICEYE-X57               
1 64578U 25135BC  26186.26749894  .00005437  00000+0  43206-3 0  9994
2 64578  97.7997 302.7866 0002082  60.5743 299.5689 15.00869774 56735
ICEYE-X55               
1 64581U 25135BF  26186.30055883  .00004147  00000+0  38137-3 0  9995
2 64581  97.7758 300.9507 0001939 294.9067  65.1952 14.95321209 56625
