{"fetched_at":"2026-07-05T12:48:00.609Z","source":"https://celestrak.org/NORAD/elements/gp.php?NAME=ICEYE&FORMAT=JSON","constellation":"iceye","records":[{"OBJECT_NAME":"ICEYE-X40","OBJECT_ID":"2024-149CK","EPOCH":"2026-07-04T16:05:05.639424","CLASSIFICATION_TYPE":"U","MEAN_MOTION":14.98012544,"ECCENTRICITY":0.00049432,"INCLINATION":97.6794,"RA_OF_ASC_NODE":261.8857,"ARG_OF_PERICENTER":29.4938,"MEAN_ANOMALY":330.6563,"EPHEMERIS_TYPE":0,"NORAD_CAT_ID":60549,"ELEMENT_SET_NO":999,"REV_AT_EPOCH":10269,"BSTAR":0.00021392654,"MEAN_MOTION_DOT":0.00002469,"MEAN_MOTION_DDOT":0},{"OBJECT_NAME":"ICEYE-X49","OBJECT_ID":"2024-247H","EPOCH":"2026-07-04T14:18:56.824992","CLASSIFICATION_TYPE":"U","MEAN_MOTION":15.13555072,"ECCENTRICITY":0.00008561,"INCLINATION":44.996,"RA_OF_ASC_NODE":264.4199,"ARG_OF_PERICENTER":236.0644,"MEAN_ANOMALY":124.0152,"EPHEMERIS_TYPE":0,"NORAD_CAT_ID":62384,"ELEMENT_SET_NO":999,"REV_AT_EPOCH":8481,"BSTAR":0.0003761138,"MEAN_MOTION_DOT":0.00006606,"MEAN_MOTION_DDOT":0},{"OBJECT_NAME":"ICEYE-X47","OBJECT_ID":"2024-247N","EPOCH":"2026-07-05T05:33:36.471168","CLASSIFICATION_TYPE":"U","MEAN_MOTION":15.13456845,"ECCENTRICITY":0.00022711,"INCLINATION":44.9943,"RA_OF_ASC_NODE":260.6146,"ARG_OF_PERICENTER":310.8518,"MEAN_ANOMALY":49.2162,"EPHEMERIS_TYPE":0,"NORAD_CAT_ID":62389,"ELEMENT_SET_NO":999,"REV_AT_EPOCH":8491,"BSTAR":0.00040858697,"MEAN_MOTION_DOT":0.00007178,"MEAN_MOTION_DDOT":0},{"OBJECT_NAME":"ICEYE-X42","OBJECT_ID":"2025-009CT","EPOCH":"2026-07-03T18:34:21.235296","CLASSIFICATION_TYPE":"U","MEAN_MOTION":14.9184302,"ECCENTRICITY":0.00011762,"INCLINATION":97.7374,"RA_OF_ASC_NODE":262.7931,"ARG_OF_PERICENTER":85.1901,"MEAN_ANOMALY":274.9452,"EPHEMERIS_TYPE":0,"NORAD_CAT_ID":62698,"ELEMENT_SET_NO":999,"REV_AT_EPOCH":7976,"BSTAR":0.00037026066,"MEAN_MOTION_DOT":0.00003683,"MEAN_MOTION_DDOT":0},{"OBJECT_NAME":"ICEYE-X41","OBJECT_ID":"2025-009CV","EPOCH":"2026-07-05T04:28:47.401536","CLASSIFICATION_TYPE":"U","MEAN_MOTION":14.96881,"ECCENTRICITY":0.00012302,"INCLINATION":97.7072,"RA_OF_ASC_NODE":265.452,"ARG_OF_PERICENTER":34.3255,"MEAN_ANOMALY":325.8046,"EPHEMERIS_TYPE":0,"NORAD_CAT_ID":62700,"ELEMENT_SET_NO":999,"REV_AT_EPOCH":8010,"BSTAR":0.00045843599,"MEAN_MOTION_DOT":0.00005203,"MEAN_MOTION_DDOT":0},{"OBJECT_NAME":"ICEYE-X45","OBJECT_ID":"2025-009DA","EPOCH":"2026-07-05T04:44:04.481376","CLASSIFICATION_TYPE":"U","MEAN_MOTION":15.00864455,"ECCENTRICITY":0.00012152,"INCLINATION":97.8377,"RA_OF_ASC_NODE":273.0297,"ARG_OF_PERICENTER":80.889,"MEAN_ANOMALY":279.2471,"EPHEMERIS_TYPE":0,"NORAD_CAT_ID":62705,"ELEMENT_SET_NO":999,"REV_AT_EPOCH":8038,"BSTAR":0.00056624249,"MEAN_MOTION_DOT":0.00007144,"MEAN_MOTION_DDOT":0},{"OBJECT_NAME":"ICEYE-X44","OBJECT_ID":"2025-009DC","EPOCH":"2026-07-05T03:27:15.411168","CLASSIFICATION_TYPE":"U","MEAN_MOTION":14.96125706,"ECCENTRICITY":0.00023664,"INCLINATION":97.7046,"RA_OF_ASC_NODE":264.9867,"ARG_OF_PERICENTER":86.1667,"MEAN_ANOMALY":273.9825,"EPHEMERIS_TYPE":0,"NORAD_CAT_ID":62707,"ELEMENT_SET_NO":999,"REV_AT_EPOCH":10262,"BSTAR":0.00043503746,"MEAN_MOTION_DOT":0.00004839,"MEAN_MOTION_DDOT":0},{"OBJECT_NAME":"ICEYE-X48","OBJECT_ID":"2025-052AV","EPOCH":"2026-07-05T03:47:43.124064","CLASSIFICATION_TYPE":"U","MEAN_MOTION":14.98090379,"ECCENTRICITY":0.00027552,"INCLINATION":97.684,"RA_OF_ASC_NODE":78.0706,"ARG_OF_PERICENTER":127.2792,"MEAN_ANOMALY":232.8682,"EPHEMERIS_TYPE":0,"NORAD_CAT_ID":63253,"ELEMENT_SET_NO":999,"REV_AT_EPOCH":7136,"BSTAR":0.00039935613,"MEAN_MOTION_DOT":0.00004669,"MEAN_MOTION_DDOT":0},{"OBJECT_NAME":"ICEYE-X50","OBJECT_ID":"2025-052AX","EPOCH":"2026-07-05T07:01:07.739616","CLASSIFICATION_TYPE":"U","MEAN_MOTION":14.95339259,"ECCENTRICITY":0.00028689,"INCLINATION":97.6862,"RA_OF_ASC_NODE":77.8387,"ARG_OF_PERICENTER":122.9548,"MEAN_ANOMALY":237.1949,"EPHEMERIS_TYPE":0,"NORAD_CAT_ID":63255,"ELEMENT_SET_NO":999,"REV_AT_EPOCH":7135,"BSTAR":0.00019841217,"MEAN_MOTION_DOT":0.00002132,"MEAN_MOTION_DDOT":0},{"OBJECT_NAME":"ICEYE-X51","OBJECT_ID":"2025-052AZ","EPOCH":"2026-07-04T15:48:10.874016","CLASSIFICATION_TYPE":"U","MEAN_MOTION":15.0088051,"ECCENTRICITY":0.00019476,"INCLINATION":97.7586,"RA_OF_ASC_NODE":80.72,"ARG_OF_PERICENTER":69.468,"MEAN_ANOMALY":290.6752,"EPHEMERIS_TYPE":0,"NORAD_CAT_ID":63257,"ELEMENT_SET_NO":999,"REV_AT_EPOCH":7142,"BSTAR":0.00038987768,"MEAN_MOTION_DOT":0.00004902,"MEAN_MOTION_DDOT":0},{"OBJECT_NAME":"ICEYE-X46","OBJECT_ID":"2025-052BA","EPOCH":"2026-07-05T03:43:41.888352","CLASSIFICATION_TYPE":"U","MEAN_MOTION":14.95339218,"ECCENTRICITY":0.00015522,"INCLINATION":97.6868,"RA_OF_ASC_NODE":77.703,"ARG_OF_PERICENTER":81.167,"MEAN_ANOMALY":278.9727,"EPHEMERIS_TYPE":0,"NORAD_CAT_ID":63258,"ELEMENT_SET_NO":999,"REV_AT_EPOCH":7133,"BSTAR":0.00018755958,"MEAN_MOTION_DOT":0.00002012,"MEAN_MOTION_DDOT":0},{"OBJECT_NAME":"ICEYE-X54","OBJECT_ID":"2025-135AU","EPOCH":"2026-07-05T07:14:11.156064","CLASSIFICATION_TYPE":"U","MEAN_MOTION":14.94693562,"ECCENTRICITY":0.00013438,"INCLINATION":97.7736,"RA_OF_ASC_NODE":300.55,"ARG_OF_PERICENTER":229.0427,"MEAN_ANOMALY":131.0677,"EPHEMERIS_TYPE":0,"NORAD_CAT_ID":64570,"ELEMENT_SET_NO":999,"REV_AT_EPOCH":5660,"BSTAR":0.00034525067,"MEAN_MOTION_DOT":0.00003689,"MEAN_MOTION_DDOT":0},{"OBJECT_NAME":"ICEYE-X52","OBJECT_ID":"2025-135AW","EPOCH":"2026-07-05T07:00:52.580736","CLASSIFICATION_TYPE":"U","MEAN_MOTION":14.93628947,"ECCENTRICITY":0.00005122,"INCLINATION":97.7763,"RA_OF_ASC_NODE":300.3435,"ARG_OF_PERICENTER":259.3571,"MEAN_ANOMALY":100.7591,"EPHEMERIS_TYPE":0,"NORAD_CAT_ID":64572,"ELEMENT_SET_NO":999,"REV_AT_EPOCH":5658,"BSTAR":0.00018428369,"MEAN_MOTION_DOT":0.00001889,"MEAN_MOTION_DDOT":0},{"OBJECT_NAME":"ICEYE-X56","OBJECT_ID":"2025-135AY","EPOCH":"2026-07-05T07:05:52.638432","CLASSIFICATION_TYPE":"U","MEAN_MOTION":14.95723254,"ECCENTRICITY":0.00006725,"INCLINATION":97.7763,"RA_OF_ASC_NODE":301.114,"ARG_OF_PERICENTER":267.3946,"MEAN_ANOMALY":92.7198,"EPHEMERIS_TYPE":0,"NORAD_CAT_ID":64574,"ELEMENT_SET_NO":999,"REV_AT_EPOCH":5663,"BSTAR":0.00033373,"MEAN_MOTION_DOT":0.00003659,"MEAN_MOTION_DDOT":0},{"OBJECT_NAME":"ICEYE-X57","OBJECT_ID":"2025-135BC","EPOCH":"2026-07-05T06:25:11.908416","CLASSIFICATION_TYPE":"U","MEAN_MOTION":15.00869774,"ECCENTRICITY":0.00020823,"INCLINATION":97.7997,"RA_OF_ASC_NODE":302.7866,"ARG_OF_PERICENTER":60.5743,"MEAN_ANOMALY":299.5689,"EPHEMERIS_TYPE":0,"NORAD_CAT_ID":64578,"ELEMENT_SET_NO":999,"REV_AT_EPOCH":5673,"BSTAR":0.00043206167,"MEAN_MOTION_DOT":0.00005437,"MEAN_MOTION_DDOT":0},{"OBJECT_NAME":"ICEYE-X55","OBJECT_ID":"2025-135BF","EPOCH":"2026-07-05T07:12:48.282912","CLASSIFICATION_TYPE":"U","MEAN_MOTION":14.95321209,"ECCENTRICITY":0.00019399,"INCLINATION":97.7758,"RA_OF_ASC_NODE":300.9507,"ARG_OF_PERICENTER":294.9067,"MEAN_ANOMALY":65.1952,"EPHEMERIS_TYPE":0,"NORAD_CAT_ID":64581,"ELEMENT_SET_NO":999,"REV_AT_EPOCH":5662,"BSTAR":0.00038136953,"MEAN_MOTION_DOT":0.00004147,"MEAN_MOTION_DDOT":0}]}
